[{"OBJECT_NAME":"HST","OBJECT_ID":"1990-037B","EPOCH":"2026-03-09T03:50:04.164288","MEAN_MOTION":15.29473555,"ECCENTRICITY":0.00018372,"INCLINATION":28.4717,"RA_OF_ASC_NODE":43.6133,"ARG_OF_PERICENTER":120.9992,"MEAN_ANOMALY":239.0785,"EPHEMERIS_TYPE":0,"CLASSIFICATION_TYPE":"U","NORAD_CAT_ID":20580,"ELEMENT_SET_NO":999,"REV_AT_EPOCH":77323,"BSTAR":0.0003002261,"MEAN_MOTION_DOT":9.063e-5,"MEAN_MOTION_DDOT":0},{"OBJECT_NAME":"STARLINK-35936","OBJECT_ID":"2025-271D","EPOCH":"2026-03-09T13:35:12.851808","MEAN_MOTION":15.30187874,"ECCENTRICITY":0.0001189,"INCLINATION":53.1578,"RA_OF_ASC_NODE":140.8022,"ARG_OF_PERICENTER":86.599,"MEAN_ANOMALY":273.5147,"EPHEMERIS_TYPE":0,"CLASSIFICATION_TYPE":"U","NORAD_CAT_ID":66620,"ELEMENT_SET_NO":999,"REV_AT_EPOCH":1754,"BSTAR":0.00086062,"MEAN_MOTION_DOT":0.00025207,"MEAN_MOTION_DDOT":0}]
